ONEWEB-0538             
1 56047U 23043B   24027.04715239  .00000061  00000+0  12634-3 0  9995
2 56047  87.9036  42.3602 0002066  85.0859 275.0508 13.16595598 45124
ONEWEB-0546             
1 56048U 23043C   24027.03448271  .00000143  00000+0  33971-3 0  9992
2 56048  87.9038  42.3240 0001037  69.7719 290.3523 13.16595839 45110
ONEWEB-0547             
1 56049U 23043D   24026.54474403  .00000024  00000+0  26459-4 0  9996
2 56049  87.9206  57.6840 0002132  79.6502 280.4873 13.21825565 42944
ONEWEB-0548             
1 56050U 23043E   24026.60383037 -.00000025  00000+0 -10017-3 0  9992
2 56050  87.9036  42.4548 0001842 112.0440 248.0886 13.16595822 44146
ONEWEB-0549             
1 56051U 23043F   24026.61255004  .00000050  00000+0  89965-4 0  9991
2 56051  87.9208  57.6699 0001987  94.2420 265.8941 13.21826477 42957
ONEWEB-0550             
1 56052U 23043G   24026.59993210  .00000054  00000+0  99250-4 0  9999
2 56052  87.9202  57.6851 0001976 101.6315 258.5041 13.21825113 42952
ONEWEB-0551             
1 56053U 23043H   24026.54949266 -.00000332  00000+0 -91533-3 0  9993
2 56053  87.8965  72.9334 0002161  97.5050 262.6326 13.15546596 41667
ONEWEB-0552             
1 56054U 23043J   24026.59364539  .00000009  00000+0 -86128-5 0  9999
2 56054  87.9204  57.6966 0002204 105.2389 254.8989 13.21817273 42957
